STARLINK-34736          
1 64846U 25152E   25211.16670139 -.00936098  00000+0 -50291-2 0  9992
2 64846  97.5946  63.4197 0001485  83.0716  90.7515 15.82484669  1756
STARLINK-34746          
1 64847U 25152F   25210.91668981 -.00845617  00000+0 -44159-2 0  9999
2 64847  97.5944  63.1442 0001253  78.4733 114.3153 15.82867310  2283
STARLINK-34748          
1 64848U 25152G   25210.91668981 -.00855577  00000+0 -44797-2 0  9994
2 64848  97.5943  63.1457 0001247  80.5860 114.7606 15.82835762  2280
STARLINK-34756          
1 64849U 25152H   25210.91668981 -.00865758  00000+0 -45425-2 0  9996
2 64849  97.5943  63.1467 0001329  77.8404 119.9068 15.82815499  2280
STARLINK-34757          
1 64850U 25152J   25211.16670139 -.00971360  00000+0 -52726-2 0  9993
2 64850  97.5948  63.4247 0001407  93.5028  90.1450 15.82354152  1750
STARLINK-34722          
1 64851U 25152K   25211.16670139 -.00991011  00000+0 -53987-2 0  9999
2 64851  97.5947  63.4255 0001516  84.0268 102.0441 15.82325682  1750
STARLINK-34564          
1 64852U 25152L   25210.91668981 -.00890616  00000+0 -47037-2 0  9992
2 64852  97.5942  63.1500 0001323  83.9063 121.1594 15.82737173  2285
STARLINK-34676          
1 64853U 25152M   25210.91668981 -.00898833  00000+0 -47589-2 0  9994
2 64853  97.5943  63.1512 0001317  84.5760 122.9709 15.82704689  2287
STARLINK-34682          
1 64854U 25152N   25211.16670139 -.01018633  00000+0 -55926-2 0  9998
2 64854  97.5945  63.4287 0001586  83.9014 109.3722 15.82228732  1750
STARLINK-34631          
1 64855U 25152P   25210.91668981 -.00924013  00000+0 -49190-2 0  9996
2 64855  97.5941  63.1537 0001340  83.7082 128.6961 15.82650724  2281
STARLINK-34578          
1 64856U 25152Q   25210.91668981 -.00934112  00000+0 -49845-2 0  9995
2 64856  97.5942  63.1549 0001355  82.0173 132.7761 15.82625527  2282
STARLINK-34683          
1 64857U 25152R   25211.50001157 -.00974516  00000+0 -55498-2 0  9991
2 64857  97.5944  63.8008 0001347  68.7564 228.3101 15.81333714  1808
STARLINK-34654          
1 64858U 25152S   25211.58335648 -.01020693  00000+0 -59036-2 0  9996
2 64858  97.5945  63.8939 0001400  62.3354 351.1863 15.81117816  1825
STARLINK-34575          
1 64859U 25152T   25211.50001157 -.00996763  00000+0 -57203-2 0  9997
2 64859  97.5945  63.8031 0001373  69.5164 232.2553 15.81224852  1808
STARLINK-34570          
1 64860U 25152U   25211.50001157 -.01007112  00000+0 -57952-2 0  9992
2 64860  97.5948  63.8044 0001346  70.4413 233.5145 15.81194059  1801
STARLINK-34651          
1 64861U 25152V   25211.50001157 -.01012811  00000+0 -58459-2 0  9998
2 64861  97.5946  63.8052 0001458  70.9719 235.2783 15.81141420  1808
STARLINK-34684          
1 64862U 25152W   25210.91668981 -.01019567  00000+0 -55421-2 0  9998
2 64862  97.5942  63.1612 0001472  80.1886 148.9936 15.82445335  2291
STARLINK-34690          
1 64863U 25152X   25210.91668981 -.01029192  00000+0 -56122-2 0  9993
2 64863  97.5944  63.1624 0001402  85.5131 146.0801 15.82403026  2293
STARLINK-34628          
1 64864U 25152Y   25210.91668981 -.01040250  00000+0 -56932-2 0  9991
2 64864  97.5949  63.1641 0001386  86.5847 147.4707 15.82353872  2174
STARLINK-34544          
1 64865U 25152Z   25210.91668981 -.01050113  00000+0 -57625-2 0  9991
2 64865  97.5944  63.1646 0001443  81.3296 155.0235 15.82321777  2170
2025-153A               
1 64866U 25153A   25209.15140346  .00000068  00000+0  10228-1 0  9995
2 64866   9.4813  83.2204 1922635 195.4464 157.7707  7.28355818   390
2025-153B               
1 64867U 25153B   25205.11713200  .00000048  00000+0  00000+0 0  9996
2 64867   9.7188  89.2292 1940420 183.8195 349.3239  7.31983586    84
2025-153C               
1 64868U 25153C   25210.91290982  .00000066  00000+0  80687-2 0  9990
2 64868   9.7173  80.5752 1940731 200.9769 149.8504  7.32307379   514
2025-154A               
1 64869U 25154A   25211.44177109  .00003491  00000+0  35377-3 0  9998
2 64869  97.7137 277.3861 0005189 208.3599 151.7338 14.91540341  1003
2025-154B               
1 64870U 25154B   25211.43915734  .00001078  00000+0  11154-3 0  9999
2 64870  97.7142 277.3890 0004253 240.2543 119.8253 14.92116176   992
2025-154C               
1 64871U 25154C   25211.43891576  .00002636  00000+0  26430-3 0  9991
2 64871  97.7120 277.3887 0004321 244.1422 115.9352 14.92177012   993
2025-154D               
1 64872U 25154D   25211.43871679  .00001061  00000+0  10955-3 0  9990
2 64872  97.7124 277.3884 0004222 245.8209 114.2569 14.92215599   991
2025-154E               
1 64873U 25154E   25211.43800503  .00001077  00000+0  11068-3 0  9992
2 64873  97.7146 277.3905 0005123 251.3016 108.7647 14.92375771   993
2025-154F               
1 64874U 25154F   25211.46086537  .00007515  00000+0  37901-3 0  9996
2 64874  97.4404 277.3034 0002323   3.0948 357.0299 15.17420204  1001
2025-154G               
1 64875U 25154G   25211.45727483  .00014386  00000+0  70426-3 0  9991
2 64875  97.4463 277.3109 0001845 120.0103 240.1314 15.18283556  1009
IONOSFERA-M 3           
1 64876U 25155A   25206.67935485 -.00000042  00000+0  00000+0 0  9996
2 64876  98.5512 172.6227 0002496  81.7648  25.3115 14.21336367    19
IONOSFERA-M 4           
1 64877U 25155B   25206.69364755  .00000175  00000+0  10000-3 0  9996
2 64877  98.5492 172.6378 0001980  97.6918  82.2612 14.21186206    16
MICROCARB               
1 64899U 25156A   25211.16446651  .00000567  00000+0  98644-4 0  9991
2 64899  98.0149 288.6221 0015787 217.1576 142.8540 14.71755008   591
CO3D 3                  
1 64900U 25156B   25211.22764132  .00006873  00000+0  29931-3 0  9996
2 64900  97.4533 289.3893 0003185 167.1905 192.9413 15.22530870   619
CO3D 4                  
1 64901U 25156C   25211.22788261  .00006970  00000+0  30427-3 0  9996
2 64901  97.4573 289.3927 0003587 168.9823 191.1492 15.22441588   611
CO3D 2                  
1 64902U 25156D   25211.22850450  .00006822  00000+0  29990-3 0  9996
2 64902  97.4522 289.3871 0004581 173.1925 186.9375 15.22209880   619
CO3D 1                  
1 64903U 25156E   25211.22873684  .00015400  00000+0  67367-3 0  9993
2 64903  97.4558 289.3903 0004864 174.4681 185.6609 15.22143926   616
HULIANWANG DIGUI A      
1 64956U 25159A   25211.53744332  .00000053  00000+0  42887-4 0  9994
2 64956  86.4947  31.8531 0008438 209.7234 150.3447 13.68676098   403
HULIANWANG DIGUI B      
1 64957U 25159B   25211.53721906  .00000015  00000+0 -19082-5 0  9998
2 64957  86.4967  31.8554 0007961 208.4668 151.6057 13.68769321   401
HULIANWANG DIGUI C      
1 64958U 25159C   25211.53681122  .00000053  00000+0  42258-4 0  9995
2 64958  86.4910  31.8476 0007626 203.9480 156.1326 13.68944971   408
HULIANWANG DIGUI D      
1 64959U 25159D   25211.46351292  .00000008  00000+0 -10077-4 0  9995
2 64959  86.4968  31.8819 0007071 197.9706 162.1205 13.69044336   398
CZ-6A R/B               
1 64961U 25159F   25210.90782620 -.00000168  00000+0 -13524-3 0  9996
2 64961  86.5043  32.0507 0104617 107.9611 253.2999 13.94023344   322
KUNPENG-03              
1 64962U 25160A   25211.53380821  .00016726  00000+0  75778-3 0  9990
2 64962  97.3990 286.1803 0010367 263.5218  96.4837 15.20886344   208
SQX-1 R/B               
1 64963U 25160B   25210.93837781 -.00000681  21512-5  00000+0 0  9999
2 64963  97.4405 285.6393 0170396 352.0467  96.0041 15.60012432   125
